{"type": "FeatureCollection", "features": [ {"type": "Feature", "properties": {"norad_id": 37216, "name": "COSMO-SKYMED 4", "group": "resource", "lat": -59.31117998591438, "lon": -165.51610871041927, "alt_km": 630.4006341045233, "timestamp": "2025-12-25T20:42:38.344045+00:00", "meta": {"OBJECT_NAME": "COSMO-SKYMED 4", "OBJECT_ID": "2010-060A", "EPOCH": "2025-12-25T06:23:59.441280", "MEAN_MOTION": 14.82159279, "ECCENTRICITY": 0.00013643, "INCLINATION": 97.8804, "RA_OF_ASC_NODE": 180.401, "ARG_OF_PERICENTER": 83.2998, "MEAN_ANOMALY": 276.8371, "EPHEMERIS_TYPE": 0, "CLASSIFICATION_TYPE": "U", "NORAD_CAT_ID": 37216, "ELEMENT_SET_NO": 999, "REV_AT_EPOCH": 81880, "BSTAR": 9.4579145e-05, "MEAN_MOTION_DOT": 7.01e-06, "MEAN_MOTION_DDOT": 0}, "tle": {"line1": "1 37216U 10060A   25359.26666020  .00000701  00000+0  94579-4 0  9993", "line2": "2 37216  97.8804 180.4010 0001364  83.2998 276.8371 14.82159279818801"}}, "geometry": {"type": "Point", "coordinates": [-165.51610871041927, -59.31117998591438]}}, {"type": "Feature", "properties": {"norad_id": 37387, "name": "RESOURCESAT-2", "group": "resource", "lat": -69.30335388116664, "lon": 87.51938684894596, "alt_km": 826.2888298957414, "timestamp": "2025-12-25T20:42:38.344056+00:00", "meta": {"OBJECT_NAME": "RESOURCESAT-2", "OBJECT_ID": "2011-015A", "EPOCH": "2025-12-25T04:09:10.470240", "MEAN_MOTION": 14.21602011, "ECCENTRICITY": 0.00058097, "INCLINATION": 98.786, "RA_OF_ASC_NODE": 62.6682, "ARG_OF_PERICENTER": 8.5404, "MEAN_ANOMALY": 351.5871, "EPHEMERIS_TYPE": 0, "CLASSIFICATION_TYPE": "U", "NORAD_CAT_ID": 37387, "ELEMENT_SET_NO": 999, "REV_AT_EPOCH": 76145, "BSTAR": 8.2340696e-05, "MEAN_MOTION_DOT": 1.36e-06, "MEAN_MOTION_DDOT": 0}, "tle": {"line1": "1 37387U 11015A   25359.17303785  .00000136  00000+0  82341-4 0  9995", "line2": "2 37387  98.7860  62.6682 0005809   8.5404 351.5871 14.21602011761452"}}, "geometry": {"type": "Point", "coordinates": [87.51938684894596, -69.30335388116664]}}, {"type": "Feature", "properties": {"norad_id": 37781, "name": "HAIYANG-2A", "group": "resource", "lat": 58.97058229774351, "lon": -163.5315713351635, "alt_km": 961.5625403554113, "timestamp": "2025-12-25T20:42:38.344066+00:00", "meta": {"OBJECT_NAME": "HAIYANG-2A", "OBJECT_ID": "2011-043A", "EPOCH": "2025-12-25T07:56:30.431328", "MEAN_MOTION": 13.78837366, "ECCENTRICITY": 0.00015961, "INCLINATION": 99.3378, "RA_OF_ASC_NODE": 0.0712, "ARG_OF_PERICENTER": 66.4507, "MEAN_ANOMALY": 293.6812, "EPHEMERIS_TYPE": 0, "CLASSIFICATION_TYPE": "U", "NORAD_CAT_ID": 37781, "ELEMENT_SET_NO": 999, "REV_AT_EPOCH": 72272, "BSTAR": 0.0003181502, "MEAN_MOTION_DOT": 2.8e-06, "MEAN_MOTION_DDOT": 0}, "tle": {"line1": "1 37781U 11043A   25359.33090777  .00000280  00000+0  31815-3 0  9995", "line2": "2 37781  99.3378   0.0712 0001596  66.4507 293.6812 13.78837366722729"}}, "geometry": {"type": "Point", "coordinates": [-163.5315713351635, 58.97058229774351]}}, {"type": "Feature", "properties": {"norad_id": 37791, "name": "RASAT", "group": "resource", "lat": 60.720887925304154, "lon": -76.42734011381677, "alt_km": 662.5270280321292, "timestamp": "2025-12-25T20:42:38.344076+00:00", "meta": {"OBJECT_NAME": "RASAT", "OBJECT_ID": "2011-044D", "EPOCH": "2025-12-25T07:31:00.461856", "MEAN_MOTION": 14.67926825, "ECCENTRICITY": 0.00212882, "INCLINATION": 98.0643, "RA_OF_ASC_NODE": 88.3841, "ARG_OF_PERICENTER": 26.9987, "MEAN_ANOMALY": 67.5453, "EPHEMERIS_TYPE": 0, "CLASSIFICATION_TYPE": "U", "NORAD_CAT_ID": 37791, "ELEMENT_SET_NO": 999, "REV_AT_EPOCH": 76767, "BSTAR": 0.00015144098, "MEAN_MOTION_DOT": 8.2e-06, "MEAN_MOTION_DDOT": 0}, "tle": {"line1": "1 37791U 11044D   25359.31319979  .00000820  00000+0  15144-3 0  9990", "line2": "2 37791  98.0643  88.3841 0021288  26.9987  67.5453 14.67926825767676"}}, "geometry": {"type": "Point", "coordinates": [-76.42734011381677, 60.720887925304154]}}, {"type": "Feature", "properties": {"norad_id": 37841, "name": "SRMSAT", "group": "resource", "lat": -16.523823851870674, "lon": -26.23188278359727, "alt_km": 861.4975233646574, "timestamp": "2025-12-25T20:42:38.344086+00:00", "meta": {"OBJECT_NAME": "SRMSAT", "OBJECT_ID": "2011-058D", "EPOCH": "2025-12-24T18:34:49.624608", "MEAN_MOTION": 14.11515378, "ECCENTRICITY": 0.00119944, "INCLINATION": 19.973, "RA_OF_ASC_NODE": 35.1176, "ARG_OF_PERICENTER": 85.055, "MEAN_ANOMALY": 74.1634, "EPHEMERIS_TYPE": 0, "CLASSIFICATION_TYPE": "U", "NORAD_CAT_ID": 37841, "ELEMENT_SET_NO": 999, "REV_AT_EPOCH": 73314, "BSTAR": 8.7140631e-05, "MEAN_MOTION_DOT": 4.25e-06, "MEAN_MOTION_DDOT": 0}, "tle": {"line1": "1 37841U 11058D   25358.77418547  .00000425  00000+0  87141-4 0  9999", "line2": "2 37841  19.9730  35.1176 0011994  85.0550  74.1634 14.11515378733143"}}, "geometry": {"type": "Point", "coordinates": [-26.23188278359727, -16.523823851870674]}}, {"type": "Feature", "properties": {"norad_id": 38012, "name": "PLEIADES 1A", "group": "resource", "lat": -12.044006196261162, "lon": -109.33055573301526, "alt_km": 702.5382833830226, "timestamp": "2025-12-25T20:42:38.344097+00:00", "meta": {"OBJECT_NAME": "PLEIADES 1A", "OBJECT_ID": "2011-076F", "EPOCH": "2025-12-25T07:04:27.723648", "MEAN_MOTION": 14.58572595, "ECCENTRICITY": 0.00010667, "INCLINATION": 98.1806, "RA_OF_ASC_NODE": 71.869, "ARG_OF_PERICENTER": 76.7378, "MEAN_ANOMALY": 13.643, "EPHEMERIS_TYPE": 0, "CLASSIFICATION_TYPE": "U", "NORAD_CAT_ID": 38012, "ELEMENT_SET_NO": 999, "REV_AT_EPOCH": 74664, "BSTAR": 9.6026424e-05, "MEAN_MOTION_DOT": 4.01e-06, "MEAN_MOTION_DDOT": 0}, "tle": {"line1": "1 38012U 11076F   25359.29476532  .00000401  00000+0  96026-4 0  9992", "line2": "2 38012  98.1806  71.8690 0001066  76.7378  13.6430 14.58572595746645"}}, "geometry": {"type": "Point", "coordinates": [-109.33055573301526, -12.044006196261162]}}, {"type": "Feature", "properties": {"norad_id": 38038, "name": "ZIYUAN 1-02C (ZY 1-02C)", "group": "resource", "lat": -30.493836422429272, "lon": -119.37719681539251, "alt_km": 772.522594744536, "timestamp": "2025-12-25T20:42:38.344107+00:00", "meta": {"OBJECT_NAME": "ZIYUAN 1-02C (ZY 1-02C)", "OBJECT_ID": "2011-079A", "EPOCH": "2025-12-25T08:21:56.081664", "MEAN_MOTION": 14.38025839, "ECCENTRICITY": 0.00075662, "INCLINATION": 98.4314, "RA_OF_ASC_NODE": 65.1291, "ARG_OF_PERICENTER": 105.6652, "MEAN_ANOMALY": 323.6657, "EPHEMERIS_TYPE": 0, "CLASSIFICATION_TYPE": "U", "NORAD_CAT_ID": 38038, "ELEMENT_SET_NO": 999, "REV_AT_EPOCH": 73422, "BSTAR": 0.00018255581, "MEAN_MOTION_DOT": 5.09e-06, "MEAN_MOTION_DDOT": 0}, "tle": {"line1": "1 38038U 11079A   25359.34856576  .00000509  00000+0  18256-3 0  9996", "line2": "2 38038  98.4314  65.1291 0007566 105.6652 323.6657 14.38025839734229"}}, "geometry": {"type": "Point", "coordinates": [-119.37719681539251, -30.493836422429272]}}, {"type": "Feature", "properties": {"norad_id": 38338, "name": "ARIRANG-3 (KOMPSAT-3)", "group": "resource", "lat": -57.46596116477643, "lon": 121.26735592782542, "alt_km": 692.6997775487534, "timestamp": "2025-12-25T20:42:38.344117+00:00", "meta": {"OBJECT_NAME": "ARIRANG-3 (KOMPSAT-3)", "OBJECT_ID": "2012-025B", "EPOCH": "2025-12-25T06:28:48.218592", "MEAN_MOTION": 14.61728548, "ECCENTRICITY": 0.000469, "INCLINATION": 98.3341, "RA_OF_ASC_NODE": 313.955, "ARG_OF_PERICENTER": 293.6101, "MEAN_ANOMALY": 66.4607, "EPHEMERIS_TYPE": 0, "CLASSIFICATION_TYPE": "U", "NORAD_CAT_ID": 38338, "ELEMENT_SET_NO": 999, "REV_AT_EPOCH": 72593, "BSTAR": 0.00013090736, "MEAN_MOTION_DOT": 6.04e-06, "MEAN_MOTION_DDOT": 0}, "tle": {"line1": "1 38338U 12025B   25359.27000253  .00000604  00000+0  13091-3 0  9994", "line2": "2 38338  98.3341 313.9550 0004690 293.6101  66.4607 14.61728548725933"}}, "geometry": {"type": "Point", "coordinates": [121.26735592782542, -57.46596116477643]}}, {"type": "Feature", "properties": {"norad_id": 38709, "name": "EXACTVIEW-1 (ADS-1B)", "group": "resource", "lat": -58.70051798627914, "lon": 123.57456136901317, "alt_km": 808.8134690315228, "timestamp": "2025-12-25T20:42:38.344127+00:00", "meta": {"OBJECT_NAME": "EXACTVIEW-1 (ADS-1B)", "OBJECT_ID": "2012-039C", "EPOCH": "2025-12-25T05:49:24.235968", "MEAN_MOTION": 14.24912861, "ECCENTRICITY": 0.00101312, "INCLINATION": 98.9637, "RA_OF_ASC_NODE": 107.8951, "ARG_OF_PERICENTER": 316.6255, "MEAN_ANOMALY": 43.4125, "EPHEMERIS_TYPE": 0, "CLASSIFICATION_TYPE": "U", "NORAD_CAT_ID": 38709, "ELEMENT_SET_NO": 999, "REV_AT_EPOCH": 69793, "BSTAR": 8.9781975e-05, "MEAN_MOTION_DOT": 1.63e-06, "MEAN_MOTION_DDOT": 0}, "tle": {"line1": "1 38709U 12039C   25359.24264162  .00000163  00000+0  89782-4 0  9990", "line2": "2 38709  98.9637 107.8951 0010131 316.6255  43.4125 14.24912861697937"}}, "geometry": {"type": "Point", "coordinates": [123.57456136901317, -58.70051798627914]}}, {"type": "Feature", "properties": {"norad_id": 38755, "name": "SPOT 6", "group": "resource", "lat": 63.48415488991104, "lon": -98.89213540931966, "alt_km": 690.993439037089, "timestamp": "2025-12-25T20:42:38.344137+00:00", "meta": {"OBJECT_NAME": "SPOT 6", "OBJECT_ID": "2012-047A", "EPOCH": "2025-12-25T07:00:44.964576", "MEAN_MOTION": 14.58543031, "ECCENTRICITY": 0.00012497, "INCLINATION": 98.1553, "RA_OF_ASC_NODE": 63.8444, "ARG_OF_PERICENTER": 78.3133, "MEAN_ANOMALY": 281.8207, "EPHEMERIS_TYPE": 0, "CLASSIFICATION_TYPE": "U", "NORAD_CAT_ID": 38755, "ELEMENT_SET_NO": 999, "REV_AT_EPOCH": 70770, "BSTAR": 9.0866103e-05, "MEAN_MOTION_DOT": 3.77e-06, "MEAN_MOTION_DDOT": 0}, "tle": {"line1": "1 38755U 12047A   25359.29218709  .00000377  00000+0  90866-4 0  9993", "line2": "2 38755  98.1553  63.8444 0001249  78.3133 281.8207 14.58543031707704"}}, "geometry": {"type": "Point", "coordinates": [-98.89213540931966, 63.48415488991104]}}]}